     2.10           GLONASS NAV DATA                        RINEX VERSION / TYPE
SPIDER V4,0,0,3554                      2015 03 24 06:28    PGM / RUN BY / DATE 
  2015     1    19   -2.002343535423e-008                    CORR TO SYSTEM TIME 
    16                                                      LEAP SECONDS        
                                                            END OF HEADER       
 3 15 01 19 10 15  0.0 3.336463123560D-05 9.094947017729D-13 3.600000000000D+04
    1.483792089844D+04-4.133844375610D-01 0.000000000000D+00 0.000000000000D+00
   -2.039580517578D+04 3.693418502808D-01 2.793967723846D-09 5.000000000000D+00
    3.916076660156D+03 3.513958930969D+00-9.313225746155D-10 0.000000000000D+00
17 15 01 19 10 15  0.0 1.457668840885D-04 9.094947017729D-13 3.600000000000D+04
    1.687782275391D+04 2.411195755005D+00 0.000000000000D+00 0.000000000000D+00
   -7.479878417969D+03-2.266120910645D-02 1.862645149231D-09 4.000000000000D+00
    1.761287207031D+04-2.327230453491D+00-3.725290298462D-09 0.000000000000D+00
23 15 01 19 10 15  0.0-7.035974413157D-04-3.637978807092D-12 3.600000000000D+04
    1.926126904297D+04-2.026894569397D+00 6.519258022308D-09 0.000000000000D+00
    7.684617187500D+03-2.276134490967D-01 9.313225746155D-10 3.000000000000D+00
   -1.485298388672D+04-2.747255325317D+00-9.313225746155D-10 0.000000000000D+00
24 15 01 19 10 15  0.0-1.202011480927D-04-0.000000000000D+00 3.600000000000D+04
    2.548100732422D+04 1.562175750732D-01 5.587935447693D-09 0.000000000000D+00
    5.235483398438D+02-1.863698959351D-01 1.862645149231D-09 2.000000000000D+00
    1.065332031250D+03-3.580255508423D+00-2.793967723846D-09 0.000000000000D+00
18 15 01 19 10 15  0.0 3.430061042309D-05 9.094947017729D-13 3.666000000000D+04
   -1.122487304688D+03 3.153132438660D+00-3.725290298462D-09 0.000000000000D+00
   -1.084918750000D+04 1.377782821655D-01 0.000000000000D+00-3.000000000000D+00
    2.307127832031D+04 2.242231369019D-01-9.313225746155D-10 0.000000000000D+00
12 15 01 19 10 15  0.0-8.442439138889D-06 1.818989403546D-12 3.747000000000D+04
    1.453164306641D+04 6.846122741699D-01 5.587935447693D-09 0.000000000000D+00
    1.944261523438D+04 8.864660263062D-01-0.000000000000D+00-1.000000000000D+00
   -8.111785644531D+03 3.346475601196D+00-9.313225746155D-10 0.000000000000D+00
 1 15 01 19 10 45  0.0-1.569818705320D-04 0.000000000000D+00 3.780000000000D+04
    4.489551757813D+03-1.087262153625D+00-9.313225746155D-10 0.000000000000D+00
    1.440177294922D+04 2.598620414734D+00-1.862645149231D-09 1.000000000000D+00
    2.056837353516D+04-1.579871177673D+00-2.793967723846D-09 0.000000000000D+00
11 15 01 19 10 45  0.0-6.593763828278D-07 0.000000000000D+00 3.780000000000D+04
    5.390582031250D+03-1.108651161194D+00-0.000000000000D+00 0.000000000000D+00
    1.954333642578D+04-1.810954093933D+00-1.862645149231D-09 0.000000000000D+00
    1.542609667969D+04 2.690095901489D+00-1.862645149231D-09 0.000000000000D+00
 2 15 01 19 10 45  0.0 1.142909750342D-04 1.818989403546D-12 3.780000000000D+04
    1.283974316406D+04-1.267929077148D+00-0.000000000000D+00 0.000000000000D+00
   -3.396085937500D+03 2.695810317993D+00 0.000000000000D+00-4.000000000000D+00
    2.181124072266D+04 1.164907455444D+00-3.725290298462D-09 0.000000000000D+00
 3 15 01 19 10 45  0.0 3.336649388075D-05 9.094947017729D-13 3.780000000000D+04
    1.380558105469D+04-6.919879913330D-01 0.000000000000D+00 0.000000000000D+00
   -1.900063330078D+04 1.185148239136D+00 2.793967723846D-09 5.000000000000D+00
    1.000855859375D+04 3.211639404297D+00-1.862645149231D-09 0.000000000000D+00
12 15 01 19 10 45  0.0-8.437782526016D-06 1.818989403546D-12 3.780000000000D+04
    1.546350634766D+04 3.104753494263D-01 4.656612873077D-09 0.000000000000D+00
    2.030744628906D+04 8.605957031250D-02-1.862645149231D-09-1.000000000000D+00
   -1.854650878906D+03 3.561194419861D+00-1.862645149231D-09 0.000000000000D+00
17 15 01 19 10 45  0.0 1.457696780562D-04 9.094947017729D-13 3.780000000000D+04
    2.063403466797D+04 1.728290557861D+00 1.862645149231D-09 0.000000000000D+00
   -7.812246582031D+03-3.147306442261D-01 1.862645149231D-09 4.000000000000D+00
    1.279739697266D+04-2.988693237305D+00-3.725290298462D-09 0.000000000000D+00
18 15 01 19 10 45  0.0 3.430433571339D-05 9.094947017729D-13 3.780000000000D+04
    4.525799804688D+03 3.070940971375D+00-1.862645149231D-09 0.000000000000D+00
   -1.101841943359D+04-3.213405609131D-01 9.313225746155D-10-3.000000000000D+00
    2.257948535156D+04-7.669420242310D-01-1.862645149231D-09 0.000000000000D+00
24 15 01 19 10 45  0.0-1.202011480927D-04-0.000000000000D+00 3.780000000000D+04
    2.494804248047D+04-7.424144744873D-01 6.519258022308D-09 0.000000000000D+00
    2.101469726563D+02-1.206483840942D-01 9.313225746155D-10 2.000000000000D+00
   -5.337067382813D+03-3.487344741821D+00-1.862645149231D-09 0.000000000000D+00
 1 15 01 19 11 15  0.0-1.569818705320D-04 0.000000000000D+00 3.960000000000D+04
    3.006364257813D+03-5.674877166748D-01-9.313225746155D-10 0.000000000000D+00
    1.881234179688D+04 2.254447937012D+00-1.862645149231D-09 1.000000000000D+00
    1.696630566406D+04-2.396403312683D+00-1.862645149231D-09 0.000000000000D+00
11 15 01 19 11 15  0.0-6.593763828278D-07 0.000000000000D+00 3.960000000000D+04
    2.802918945313D+03-1.761759757996D+00-1.862645149231D-09 0.000000000000D+00
    1.603734375000D+04-2.035964965820D+00-1.862645149231D-09 0.000000000000D+00
    1.960706494141D+04 1.925329208374D+00-1.862645149231D-09 0.000000000000D+00
 2 15 01 19 11 15  0.0 1.142947003245D-04 1.818989403546D-12 3.960000000000D+04
    1.085900585938D+04-9.078941345215D-01-0.000000000000D+00 0.000000000000D+00
    1.782430664063D+03 3.013314247131D+00-0.000000000000D+00-4.000000000000D+00
    2.304076806641D+04 1.923437118530D-01-2.793967723846D-09 0.000000000000D+00
 3 15 01 19 11 15  0.0 3.336835652590D-05 9.094947017729D-13 3.960000000000D+04
    1.249971289063D+04-7.172079086304D-01 0.000000000000D+00 0.000000000000D+00
   -1.614854687500D+04 1.968893051147D+00 1.862645149231D-09 5.000000000000D+00
    1.532913916016D+04 2.661890029907D+00-2.793967723846D-09 0.000000000000D+00
12 15 01 19 11 15  0.0-8.434057235718D-06 1.818989403546D-12 3.960000000000D+04
    1.552005126953D+04-2.778520584106D-01 2.793967723846D-09 0.000000000000D+00
    1.982578564453D+04-5.928602218628D-01-2.793967723846D-09-1.000000000000D+00
    4.544472167969D+03 3.503191947937D+00-1.862645149231D-09 0.000000000000D+00
17 15 01 19 11 15  0.0 1.457715407014D-04 9.094947017729D-13 3.960000000000D+04
    2.300687548828D+04 8.915100097656D-01 4.656612873077D-09 0.000000000000D+00
   -8.480033691406D+03-3.867025375366D-01 9.313225746155D-10 4.000000000000D+00
    6.992246093750D+03-3.419635772705D+00-3.725290298462D-09 0.000000000000D+00
18 15 01 19 11 15  0.0 3.430712968111D-05 1.818989403546D-12 3.960000000000D+04
    9.754364257813D+03 2.692692756653D+00-0.000000000000D+00 0.000000000000D+00
   -1.195788085938D+04-7.007112503052D-01 9.313225746155D-10-3.000000000000D+00
    2.034641552734D+04-1.698056221008D+00-2.793967723846D-09 0.000000000000D+00
24 15 01 19 11 15  0.0-1.202020794153D-04-0.000000000000D+00 3.960000000000D+04
    2.286479101563D+04-1.547430992126D+00 7.450580596924D-09 0.000000000000D+00
    2.294272460938D+02 1.772966384888D-01 0.000000000000D+00 2.000000000000D+00
   -1.132705859375D+04-3.125050544739D+00-9.313225746155D-10 0.000000000000D+00
13 15 01 19 11 15  0.0-4.685623571277D-04-9.094947017729D-13 4.104000000000D+04
    1.879437011719D+04 1.363595008850D+00 6.519258022308D-09 0.000000000000D+00
    1.119633007813D+04 1.184643745422D+00-9.313225746155D-10-2.000000000000D+00
   -1.312967089844D+04 2.964964866638D+00-9.313225746155D-10 0.000000000000D+00
11 15 01 19 11 45  0.0-6.593763828278D-07 0.000000000000D+00 4.140000000000D+04
   -9.001621093750D+02-2.329224586487D+00-2.793967723846D-09 0.000000000000D+00
    1.238637744141D+04-1.975030899048D+00-9.313225746155D-10 0.000000000000D+00
    2.226822314453D+04 1.012507438660D+00-1.862645149231D-09 0.000000000000D+00
 1 15 01 19 11 45  0.0-1.569809392095D-04 0.000000000000D+00 4.140000000000D+04
    2.391611816406D+03-1.387014389038D-01-1.862645149231D-09 0.000000000000D+00
    2.235998339844D+04 1.648666381836D+00-2.793967723846D-09 1.000000000000D+00
    1.205286669922D+04-3.027512550354D+00-9.313225746155D-10 0.000000000000D+00
 2 15 01 19 11 45  0.0 1.142984256148D-04 1.818989403546D-12 4.140000000000D+04
    9.631711425781D+03-4.477405548096D-01-9.313225746155D-10 0.000000000000D+00
    7.276813476563D+03 3.040572166443D+00-9.313225746155D-10-4.000000000000D+00
    2.249449804688D+04-7.954788208008D-01-2.793967723846D-09 0.000000000000D+00
 3 15 01 19 11 45  0.0 3.337021917105D-05 9.094947017729D-13 4.140000000000D+04
    1.136342480469D+04-5.108270645142D-01 0.000000000000D+00 0.000000000000D+00
   -1.199890771484D+04 2.609494209290D+00 9.313225746155D-10 5.000000000000D+00
    1.946811474609D+04 1.907252311707D+00-3.725290298462D-09 0.000000000000D+00
12 15 01 19 11 45  0.0-8.429400622845D-06 1.818989403546D-12 4.140000000000D+04
    1.438115380859D+04-1.002088546753D+00 9.313225746155D-10 0.000000000000D+00
    1.829859716797D+04-1.063935279846D+00-2.793967723846D-09-1.000000000000D+00
    1.059518164063D+04 3.176437377930D+00-2.793967723846D-09 0.000000000000D+00
13 15 01 19 11 45  0.0-4.685651510954D-04-9.094947017729D-13 4.140000000000D+04
    2.087966357422D+04 9.104909896851D-01 4.656612873077D-09 0.000000000000D+00
    1.267999951172D+04 4.753923416138D-01-2.793967723846D-09-2.000000000000D+00
   -7.354342285156D+03 3.410448074341D+00-1.862645149231D-09 0.000000000000D+00
